ONEWEB-0033             
1 45142U 20008M   24128.60567826  .00000323  00000+0  88809-3 0  9996
2 45142  87.8973 189.4753 0002383 100.0753 260.0644 13.10375535207294
ONEWEB-0035             
1 45143U 20008N   24128.56086388  .00000059  00000+0  13361-3 0  9998
2 45143  87.8972 189.4633 0002212 101.3423 258.7952 13.10370656207015
ONEWEB-0036             
1 45144U 20008P   24128.55090889  .00000552  00000+0  15443-2 0  9999
2 45144  87.8969 189.4239 0001973  96.2873 263.8479 13.10371651207442
ONEWEB-0038             
1 45145U 20008Q   24128.55867168  .00000043  00000+0  86234-4 0  9995
2 45145  87.8993 174.3587 0001745 119.3463 240.7840 13.11418450209323
ONEWEB-0039             
1 45146U 20008R   24128.60901196  .00000487  00000+0  13585-2 0  9991
2 45146  87.8976 189.4296 0001637  94.9555 265.1759 13.10375522207249
ONEWEB-0040             
1 45147U 20008S   24128.60235917  .00000146  00000+0  38220-3 0  9999
2 45147  87.8984 189.4298 0002046 100.3027 259.8331 13.10375267206940
ONEWEB-0043             
1 45149U 20008U   24128.52766769  .00001149  00000+0  32549-2 0  9997
2 45149  87.8975 189.4536 0001521  94.1974 265.9327 13.10371124207251
ONEWEB-0044             
1 45150U 20008V   24128.55587597  .00000322  00000+0  88760-3 0  9991
2 45150  87.8972 189.4436 0001785  95.1928 264.9403 13.10368826207553
